IRIDIUM 57              
1 25273U 98019B   24144.53549642  .00000833  00000+0  28463-3 0  9998
2 25273  86.3928 308.4533 0002102  89.9178 270.2259 14.35219199368884
IRIDIUM 63              
1 25286U 98021B   24144.35954742  .00000923  00000+0  31266-3 0  9991
2 25286  86.4000 245.4086 0002369  94.6848 265.4620 14.35771364367890
IRIDIUM 69              
1 25319U 98026A   24144.36203028  .00001212  00000+0  37887-3 0  9995
2 25319  86.3974 259.8729 0001728 166.3066 193.8181 14.40000079366941
IRIDIUM 71              
1 25320U 98026B   24144.36745579  .00001090  00000+0  33803-3 0  9997
2 25320  86.3979 254.6350 0000708  15.0108 345.1112 14.40314322367468
IRIDIUM 73              
1 25344U 98032C   24144.60526944  .00001160  00000+0  29124-3 0  9999
2 25344  86.4464 212.0151 0001923 106.4134 253.7283 14.50539605374066
IRIDIUM 82              
1 25467U 98051A   24144.48778804  .00012332  00000+0  63250-3 0  9997
2 25467  86.3745 297.4872 0126654 312.0177  47.0331 15.09596452364763
IRIDIUM 2               
1 25527U 98066A   24144.48632319  .00264857  00000+0  13426-2 0  9990
2 25527  85.4974 319.3217 0000200 246.2126 113.9128 15.80821834404015
